NORAD_CAT_ID,OBJECT_NAME,OBJECT_TYPE,EPOCH,MEAN_MOTION,ECCENTRICITY,INCLINATION,RA_OF_ASC_NODE,ARG_OF_PERICENTER,MEAN_ANOMALY,BSTAR,MEAN_MOTION_DOT,MEAN_MOTION_DDOT,TLE_LINE0,TLE_LINE1,TLE_LINE2,SEMIMAJOR_AXIS,PERIOD,APOGEE,PERIGEE,DECAYED
53024.0,STARLINK-4289,PAYLOAD,2024-03-26 14:09:52,15.08833681,9.64e-05,53.2174,45.3459,93.8713,266.239,-3.2237e-05,-8.01e-06,0.0,0 STARLINK-4289,1 53024U 22076AQ  24086.59018708 -.00000801  00000-0 -32237-4 0  9991,2 53024  53.2174  45.3459 0000964  93.8713 266.2390 15.08833681 95339,6917.9,95.438,540.432,539.098,0.0
53024.0,STARLINK-4289,PAYLOAD,2024-03-26 20:31:25,15.08826775,9.31e-05,53.2181,44.1595,110.1479,249.9614,9.1935e-05,1.175e-05,0.0,0 STARLINK-4289,1 53024U 22076AQ  24086.85515526  .00001175  00000-0  91935-4 0  9993,2 53024  53.2181  44.1595 0000931 110.1479 249.9614 15.08826775 95840,6917.921,95.438,540.43,539.142,0.0
53024.0,STARLINK-4289,PAYLOAD,2024-03-27 04:28:19,15.0885715,0.0001462,53.2181,42.6712,129.8402,230.2719,0.00049748,7.642e-05,0.0,0 STARLINK-4289,1 53024U 22076AQ  24087.18634006  .00007642  00000-0  49748-3 0  9994,2 53024  53.2181  42.6712 0001462 129.8402 230.2719 15.08857150 95892,6917.828,95.436,540.704,538.682,0.0
53024.0,STARLINK-4289,PAYLOAD,2024-03-27 14:00:37,15.08866925,0.0001256,53.2181,40.8861,88.5264,271.5872,0.00053476,8.239e-05,0.0,0 STARLINK-4289,1 53024U 22076AQ  24087.58377237  .00008239  00000-0  53476-3 0  9994,2 53024  53.2181  40.8861 0001256  88.5264 271.5872 15.08866925 95488,6917.798,95.436,540.532,538.794,0.0
53024.0,STARLINK-4289,PAYLOAD,2024-03-28 04:19:08,15.08829022,0.0001356,53.2188,38.2107,91.3784,268.7363,0.0003496,5.279e-05,0.0,0 STARLINK-4289,1 53024U 22076AQ  24088.17995458  .00005279  00000-0  34960-3 0  9999,2 53024  53.2188  38.2107 0001356  91.3784 268.7363 15.08829022 96042,6917.914,95.438,540.717,538.841,0.0
53024.0,STARLINK-4289,PAYLOAD,2024-03-28 13:51:25,15.08851714,0.0001096,53.2183,36.4288,94.2519,265.8598,0.00016289,2.306e-05,0.0,0 STARLINK-4289,1 53024U 22076AQ  24088.57738067  .00002306  00000-0  16289-3 0  9996,2 53024  53.2183  36.4288 0001096  94.2519 265.8598 15.08851714 95631,6917.845,95.437,540.468,538.951,0.0
53024.0,STARLINK-4289,PAYLOAD,2024-03-28 20:12:58,15.08846085,0.0001698,53.2176,35.239,91.2828,268.8358,0.00020224,2.933e-05,0.0,0 STARLINK-4289,1 53024U 22076AQ  24088.84234468  .00002933  00000-0  20224-3 0  9992,2 53024  53.2176  35.2390 0001698  91.2828 268.8358 15.08846085 96141,6917.862,95.437,540.901,538.552,0.0
53024.0,STARLINK-4289,PAYLOAD,2024-03-29 02:34:30,15.0884983,0.0001776,53.219,34.0487,128.2801,231.8351,-7.8137e-05,-1.532e-05,0.0,0 STARLINK-4289,1 53024U 22076AQ  24089.10729959 -.00001532  00000-0 -78137-4 0  9999,2 53024  53.2190  34.0487 0001776 128.2801 231.8351 15.08849830 95716,6917.85,95.437,540.944,538.487,0.0
53024.0,STARLINK-4289,PAYLOAD,2024-03-30 02:25:18,15.08843471,0.0001681,53.2188,29.5902,89.2497,270.8688,0.00021435,3.125e-05,0.0,0 STARLINK-4289,1 53024U 22076AQ  24090.10090383  .00003125  00000-0  21435-3 0  9999,2 53024  53.2188  29.5902 0001681  89.2497 270.8688 15.08843471 96336,6917.87,95.437,540.898,538.572,0.0
53024.0,STARLINK-4289,PAYLOAD,2024-03-30 05:36:04,15.08844213,0.0001524,53.2189,28.9957,90.8491,269.2675,9.8101e-05,1.274e-05,0.0,0 STARLINK-4289,1 53024U 22076AQ  24090.23338313  .00001274  00000-0  98101-4 0  9999,2 53024  53.2189  28.9957 0001524  90.8491 269.2675 15.08844213 95880,6917.868,95.437,540.787,538.678,0.0
53024.0,STARLINK-4289,PAYLOAD,2024-03-30 23:05:19,15.08833441,0.0001368,53.2179,25.7226,95.2892,264.8256,0.00031,4.648e-05,0.0,0 STARLINK-4289,1 53024U 22076AQ  24090.96203009  .00004648  00000-0  31000-3 0  9994,2 53024  53.2179  25.7226 0001368  95.2892 264.8256 15.08833441 95992,6917.9,95.438,540.712,538.819,0.0
53024.0,STARLINK-4289,PAYLOAD,2024-03-31 02:16:05,15.08825586,0.0001302,53.2183,25.1279,96.6061,263.5079,0.00029947,4.48e-05,0.0,0 STARLINK-4289,1 53024U 22076AQ  24091.09451270  .00004480  00000-0  29947-3 0  9995,2 53024  53.2183  25.1279 0001302  96.6061 263.5079 15.08825586 96485,6917.924,95.438,540.69,538.889,0.0
53024.0,STARLINK-4289,PAYLOAD,2024-03-31 05:26:51,15.08841843,0.0001188,53.2182,24.5326,85.838,274.2748,4.6529e-05,4.53e-06,0.0,0 STARLINK-4289,1 53024U 22076AQ  24091.22698450  .00000453  00000-0  46529-4 0  9995,2 53024  53.2182  24.5326 0001188  85.8380 274.2748 15.08841843 96505,6917.875,95.437,540.562,538.918,0.0
53024.0,STARLINK-4289,PAYLOAD,2024-04-01 03:42:15,15.08831844,0.0001239,53.2196,20.3675,91.7604,268.353,7.1333e-05,8.47e-06,0.0,0 STARLINK-4289,1 53024U 22076AQ  24092.15435110  .00000847  00000-0  71333-4 0  9998,2 53024  53.2196  20.3675 0001239  91.7604 268.3530 15.08831844 96641,6917.905,95.438,540.627,538.913,0.0
53024.0,STARLINK-4289,PAYLOAD,2024-04-01 11:39:10,15.08843274,0.0001104,53.2192,18.8838,92.416,267.6958,0.0001032,1.355e-05,0.0,0 STARLINK-4289,1 53024U 22076AQ  24092.48554315  .00001355  00000-0  10320-3 0  9996,2 53024  53.2192  18.8838 0001104  92.4160 267.6958 15.08843274 96697,6917.87,95.437,540.499,538.972,0.0
53024.0,STARLINK-4289,PAYLOAD,2024-04-02 11:29:57,15.08854091,0.0001273,53.2205,14.4256,94.8489,265.2649,0.00015163,2.127e-05,0.0,0 STARLINK-4289,1 53024U 22076AQ  24093.47913521  .00002127  00000-0  15163-3 0  9992,2 53024  53.2205  14.4256 0001273  94.8489 265.2649 15.08854091 96370,6917.837,95.437,540.583,538.822,0.0
53024.0,STARLINK-4289,PAYLOAD,2024-04-03 04:59:14,15.08826404,0.0001289,53.2195,11.155,100.3895,259.7242,-1.1095e-05,-4.64e-06,0.0,0 STARLINK-4289,1 53024U 22076AQ  24094.20780373 -.00000464  00000-0 -11095-4 0  9996,2 53024  53.2195  11.1550 0001289 100.3895 259.7242 15.08826404 96958,6917.922,95.438,540.679,538.895,0.0
53024.0,STARLINK-4289,PAYLOAD,2024-04-03 11:20:46,15.08833916,0.0001336,53.2197,9.9655,98.6682,261.4461,1.7416e-05,-1.1e-07,0.0,0 STARLINK-4289,1 53024U 22076AQ  24094.47275958 -.00000011  00000-0  17416-4 0  9993,2 53024  53.2197   9.9655 0001336  98.6682 261.4461 15.08833916 96990,6917.899,95.438,540.688,538.84,0.0
53024.0,STARLINK-4289,PAYLOAD,2024-04-03 17:42:18,15.08836717,0.0001337,53.2195,8.775,100.0452,260.0691,9.3868e-05,1.206e-05,0.0,0 STARLINK-4289,1 53024U 22076AQ  24094.73771687  .00001206  00000-0  93868-4 0  9993,2 53024  53.2195   8.7750 0001337 100.0452 260.0691 15.08836717 96560,6917.89,95.438,540.68,538.831,0.0
53024.0,STARLINK-4289,PAYLOAD,2024-04-04 03:14:36,15.08851201,0.0001282,53.2181,6.9908,96.7579,263.356,0.00021801,3.184e-05,0.0,0 STARLINK-4289,1 53024U 22076AQ  24095.13514725  .00003184  00000-0  21801-3 0  9990,2 53024  53.2181   6.9908 0001282  96.7579 263.3560 15.08851201 97095,6917.846,95.437,540.598,538.824,0.0
53024.0,STARLINK-4289,PAYLOAD,2024-04-04 11:11:31,15.0885844,0.0001302,53.2181,5.5018,80.4601,279.6538,0.00029978,4.489e-05,0.0,0 STARLINK-4289,1 53024U 22076AQ  24095.46634229  .00004489  00000-0  29978-3 0  9990,2 53024  53.2181   5.5018 0001302  80.4601 279.6538 15.08858440 96671,6917.824,95.436,540.59,538.788,0.0
53024.0,STARLINK-4289,PAYLOAD,2024-04-04 22:19:14,15.08836691,0.0001173,53.2183,3.4226,87.3871,272.7255,0.00023113,3.392e-05,0.0,0 STARLINK-4289,1 53024U 22076AQ  24095.93003401  .00003392  00000-0  23113-3 0  9991,2 53024  53.2183   3.4226 0001173  87.3871 272.7255 15.08836691 96744,6917.891,95.438,540.567,538.944,0.0
53024.0,STARLINK-4289,PAYLOAD,2024-04-04 23:54:37,15.08840674,0.0001081,53.218,3.1252,87.5958,272.5158,0.00018414,2.644e-05,0.0,0 STARLINK-4289,1 53024U 22076AQ  24095.99627139  .00002644  00000-0  18414-3 0  9994,2 53024  53.2180   3.1252 0001081  87.5958 272.5158 15.08840674 97223,6917.878,95.438,540.491,538.996,0.0
53024.0,STARLINK-4289,PAYLOAD,2024-04-05 11:02:19,15.08858876,0.0001301,53.2174,1.0439,85.9326,274.1815,0.00039363,5.985e-05,0.0,0 STARLINK-4289,1 53024U 22076AQ  24096.45994264  .00005985  00000-0  39363-3 0  9999,2 53024  53.2174   1.0439 0001301  85.9326 274.1815 15.08858876 97294,6917.823,95.436,540.588,538.788,0.0
53024.0,STARLINK-4289,PAYLOAD,2024-04-05 17:23:52,15.08846515,0.0001888,53.2177,359.8534,91.7541,268.3667,0.00014889,2.083e-05,0.0,0 STARLINK-4289,1 53024U 22076AQ  24096.72490776  .00002083  00000-0  14889-3 0  9990,2 53024  53.2177 359.8534 0001888  91.7541 268.3667 15.08846515 97333,6917.86,95.437,541.032,538.419,0.0
53024.0,STARLINK-4289,PAYLOAD,2024-04-05 22:10:01,15.08842693,0.0001637,53.2175,358.9623,89.2637,270.8542,0.00033012,4.97e-05,0.0,0 STARLINK-4289,1 53024U 22076AQ  24096.92362722  .00004970  00000-0  33012-3 0  9997,2 53024  53.2175 358.9623 0001637  89.2637 270.8542 15.08842693 96893,6917.872,95.437,540.87,538.605,0.0
53024.0,STARLINK-4289,PAYLOAD,2024-04-06 10:53:06,15.0885237,0.0001647,53.2186,356.5838,90.0348,270.0833,0.0009036,0.00014127,0.0,0 STARLINK-4289,1 53024U 22076AQ  24097.45354622  .00014127  00000-0  90360-3 0  9990,2 53024  53.2186 356.5838 0001647  90.0348 270.0833 15.08852370 96974,6917.843,95.437,540.847,538.568,0.0
53024.0,STARLINK-4289,PAYLOAD,2024-04-06 22:00:48,15.08836514,0.0001317,53.2173,354.5024,83.7038,276.4104,0.00030154,4.514e-05,0.0,0 STARLINK-4289,1 53024U 22076AQ  24097.91722840  .00004514  00000-0  30154-3 0  9996,2 53024  53.2173 354.5024 0001317  83.7038 276.4104 15.08836514 97046,6917.891,95.438,540.667,538.845,0.0
53024.0,STARLINK-4289,PAYLOAD,2024-04-07 02:46:58,15.08838293,0.0001501,53.2181,353.6092,98.9644,261.1518,0.00052774,8.121e-05,0.0,0 STARLINK-4289,1 53024U 22076AQ  24098.11594936  .00008121  00000-0  52774-3 0  9992,2 53024  53.2181 353.6092 0001501  98.9644 261.1518 15.08838293 97075,6917.886,95.438,540.789,538.712,0.0
53024.0,STARLINK-4289,PAYLOAD,2024-04-07 23:26:59,15.08843491,0.000151,53.2177,349.7427,90.2209,269.8957,0.00055254,8.517e-05,0.0,0 STARLINK-4289,1 53024U 22076AQ  24098.97707258  .00008517  00000-0  55254-3 0  9994,2 53024  53.2177 349.7427 0001510  90.2209 269.8957 15.08843491 97203,6917.87,95.437,540.779,538.69,0.0
